NORAD_CAT_ID,OBJECT_NAME,OBJECT_TYPE,EPOCH,MEAN_MOTION,ECCENTRICITY,INCLINATION,RA_OF_ASC_NODE,ARG_OF_PERICENTER,MEAN_ANOMALY,BSTAR,MEAN_MOTION_DOT,MEAN_MOTION_DDOT,TLE_LINE0,TLE_LINE1,TLE_LINE2,SEMIMAJOR_AXIS,PERIOD,APOGEE,PERIGEE,DECAYED
54201.0,STARLINK-5199,PAYLOAD,2023-03-14 19:04:03,15.08861143,0.0001525,53.2185,211.0559,106.3963,253.7197,0.00017275,2.464e-05,0.0,0 STARLINK-5199,1 54201U 22141AW  23073.79447929  .00002464  00000-0  17275-3 0  9999,2 54201  53.2185 211.0559 0001525 106.3963 253.7197 15.08861143 21545,6917.816,95.436,540.736,538.626,0.0
54201.0,STARLINK-5199,PAYLOAD,2023-03-15 12:33:18,15.08846144,0.0001422,53.2178,207.7919,83.7921,276.3234,8.3976e-05,1.049e-05,0.0,0 STARLINK-5199,1 54201U 22141AW  23074.52312927  .00001049  00000-0  83976-4 0  9990,2 54201  53.2178 207.7919 0001422  83.7921 276.3234 15.08846144 21656,6917.862,95.437,540.71,538.743,0.0
54201.0,STARLINK-5199,PAYLOAD,2023-03-16 09:13:19,15.08842245,0.0002259,53.2148,203.9193,114.2268,245.8961,-3.9351e-05,-9.15e-06,0.0,0 STARLINK-5199,1 54201U 22141AW  23075.38425329 -.00000915  00000-0 -39351-4 0  9997,2 54201  53.2148 203.9193 0002259 114.2268 245.8961 15.08842245 21788,6917.874,95.437,541.301,538.176,0.0
54201.0,STARLINK-5199,PAYLOAD,2023-03-16 18:45:38,15.08838532,5.68e-05,53.2192,202.1377,96.4959,263.6098,-0.00018833,-3.283e-05,0.0,0 STARLINK-5199,1 54201U 22141AW  23075.78169951 -.00003283  00000-0 -18833-3 0  9999,2 54201  53.2192 202.1377 0000568  96.4959 263.6098 15.08838532 21841,6917.885,95.438,540.143,539.357,0.0
54201.0,STARLINK-5199,PAYLOAD,2023-03-17 01:07:12,15.08819241,6.73e-05,53.2186,200.9482,118.9285,241.1774,-7.7134e-05,-1.514e-05,0.0,0 STARLINK-5199,1 54201U 22141AW  23076.04666915 -.00001514  00000-0 -77134-4 0  9996,2 54201  53.2186 200.9482 0000673 118.9285 241.1774 15.08819241 21888,6917.944,95.439,540.274,539.343,0.0
54201.0,STARLINK-5199,PAYLOAD,2023-03-17 09:04:08,15.08827261,8.25e-05,53.2172,199.4623,77.9977,282.1107,-0.00020257,-3.509e-05,0.0,0 STARLINK-5199,1 54201U 22141AW  23076.37787380 -.00003509  00000-0 -20257-3 0  9991,2 54201  53.2172 199.4623 0000825  77.9977 282.1107 15.08827261 21700,6917.919,95.438,540.355,539.214,0.0
54201.0,STARLINK-5199,PAYLOAD,2023-03-18 00:57:58,15.08827769,5.38e-05,53.2186,196.4886,81.5742,278.5311,0.00014937,2.09e-05,0.0,0 STARLINK-5199,1 54201U 22141AW  23077.04026351  .00002090  00000-0  14937-3 0  9990,2 54201  53.2186 196.4886 0000538  81.5742 278.5311 15.08827769 22031,6917.918,95.438,540.155,539.411,0.0
54201.0,STARLINK-5199,PAYLOAD,2023-03-18 13:41:02,15.08845527,8.13e-05,53.2176,194.1097,95.4057,264.7028,0.00027637,4.114e-05,0.0,0 STARLINK-5199,1 54201U 22141AW  23077.57017120  .00004114  00000-0  27637-3 0  9992,2 54201  53.2176 194.1097 0000813  95.4057 264.7028 15.08845527 22111,6917.863,95.437,540.291,539.166,0.0
54201.0,STARLINK-5199,PAYLOAD,2023-03-18 16:51:48,15.08853479,6.93e-05,53.2183,193.5147,78.5457,281.5613,0.00032296,4.858e-05,0.0,0 STARLINK-5199,1 54201U 22141AW  23077.70264333  .00004858  00000-0  32296-3 0  9999,2 54201  53.2183 193.5147 0000693  78.5457 281.5613 15.08853479 22134,6917.839,95.437,540.184,539.225,0.0
54201.0,STARLINK-5199,PAYLOAD,2023-03-19 00:48:45,15.08836205,8.1e-05,53.2176,192.0287,77.3275,282.7808,0.00020618,2.995e-05,0.0,0 STARLINK-5199,1 54201U 22141AW  23078.03385866  .00002995  00000-0  20618-3 0  9996,2 54201  53.2176 192.0287 0000810  77.3275 282.7808 15.08836205 22183,6917.892,95.438,540.317,539.197,0.0
54201.0,STARLINK-5199,PAYLOAD,2023-03-19 07:10:18,15.08828214,8.51e-05,53.2177,190.8394,80.3227,279.7861,0.00013547,1.868e-05,0.0,0 STARLINK-5199,1 54201U 22141AW  23078.29882754  .00001868  00000-0  13547-3 0  9993,2 54201  53.2177 190.8394 0000851  80.3227 279.7861 15.08828214 22226,6917.916,95.438,540.37,539.193,0.0
54201.0,STARLINK-5199,PAYLOAD,2023-03-19 13:31:50,15.0883898,8.57e-05,53.2186,189.6506,88.0792,272.0298,0.00018375,2.638e-05,0.0,0 STARLINK-5199,1 54201U 22141AW  23078.56377951  .00002638  00000-0  18375-3 0  9991,2 54201  53.2186 189.6506 0000857  88.0792 272.0298 15.08838980 22035,6917.884,95.438,540.341,539.156,0.0
54201.0,STARLINK-5199,PAYLOAD,2023-03-19 16:42:36,15.08853673,7.76e-05,53.2186,189.0543,87.1591,272.949,0.00012945,1.774e-05,0.0,0 STARLINK-5199,1 54201U 22141AW  23078.69625029  .00001774  00000-0  12945-3 0  9994,2 54201  53.2186 189.0543 0000776  87.1591 272.9490 15.08853673 22283,6917.839,95.437,540.24,539.167,0.0
54201.0,STARLINK-5199,PAYLOAD,2023-03-20 00:39:32,15.08844007,8.37e-05,53.2193,187.5692,92.5799,267.5289,-2.0152e-05,-6.08e-06,0.0,0 STARLINK-5199,1 54201U 22141AW  23079.02746033 -.00000608  00000-0 -20152-4 0  9998,2 54201  53.2193 187.5692 0000837  92.5799 267.5289 15.08844007 22330,6917.868,95.437,540.312,539.154,0.0
54201.0,STARLINK-5199,PAYLOAD,2023-03-20 13:22:37,15.08840639,8.78e-05,53.2174,185.19,100.0402,260.069,-6.0549e-05,-1.251e-05,0.0,0 STARLINK-5199,1 54201U 22141AW  23079.55738272 -.00001251  00000-0 -60549-4 0  9991,2 54201  53.2174 185.1900 0000878 100.0402 260.0690 15.08840639 22180,6917.878,95.438,540.351,539.136,0.0
54201.0,STARLINK-5199,PAYLOAD,2023-03-21 00:30:18,15.08854774,9.81e-05,53.2181,183.1085,99.7822,260.3281,-0.00012919,-2.344e-05,0.0,0 STARLINK-5199,1 54201U 22141AW  23080.02105280 -.00002344  00000-0 -12919-3 0  9993,2 54201  53.2181 183.1085 0000981  99.7822 260.3281 15.08854774 22482,6917.835,95.437,540.379,539.022,0.0
54201.0,STARLINK-5199,PAYLOAD,2023-03-21 10:02:38,15.08839464,0.0001236,53.2175,181.3247,98.1649,261.9484,5.6367e-05,6.09e-06,0.0,0 STARLINK-5199,1 54201U 22141AW  23080.41849809  .00000609  00000-0  56367-4 0  9994,2 54201  53.2175 181.3247 0001236  98.1649 261.9484 15.08839464 22547,6917.882,95.438,540.602,538.892,0.0
54201.0,STARLINK-5199,PAYLOAD,2023-03-21 13:13:24,15.08847095,0.0001293,53.2184,180.7301,105.8844,254.2291,3.7547e-05,3.1e-06,0.0,0 STARLINK-5199,1 54201U 22141AW  23080.55097338  .00000310  00000-0  37547-4 0  9999,2 54201  53.2184 180.7301 0001293 105.8844 254.2291 15.08847095 22569,6917.859,95.437,540.618,538.829,0.0
54201.0,STARLINK-5199,PAYLOAD,2023-03-22 11:28:49,15.08826554,0.0001395,53.2191,176.5668,110.1637,249.9505,7.4627e-05,9e-06,0.0,0 STARLINK-5199,1 54201U 22141AW  23081.47834831  .00000900  00000-0  74627-4 0  9993,2 54201  53.2191 176.5668 0001395 110.1637 249.9505 15.08826554 22700,6917.921,95.438,540.752,538.821,0.0
54201.0,STARLINK-5199,PAYLOAD,2023-03-22 13:04:12,15.08834028,0.0001286,53.2188,176.2698,103.1134,257.0002,1.8419e-05,5e-08,0.0,0 STARLINK-5199,1 54201U 22141AW  23081.54458608  .00000005  00000-0  18419-4 0  9998,2 54201  53.2188 176.2698 0001286 103.1134 257.0002 15.08834028 22481,6917.899,95.438,540.653,538.874,0.0
54201.0,STARLINK-5199,PAYLOAD,2023-03-23 11:19:35,15.08843847,0.0001203,53.2183,172.106,105.4491,254.6634,9.7583e-05,1.266e-05,0.0,0 STARLINK-5199,1 54201U 22141AW  23082.47193861  .00001266  00000-0  97583-4 0  9997,2 54201  53.2183 172.1060 0001203 105.4491 254.6634 15.08843847 22858,6917.869,95.437,540.566,538.901,0.0
54201.0,STARLINK-5199,PAYLOAD,2023-03-23 12:54:58,15.08852516,0.0001901,53.2189,171.8085,118.0542,242.0643,5.2337e-05,5.45e-06,0.0,0 STARLINK-5199,1 54201U 22141AW  23082.53817417  .00000545  00000-0  52337-4 0  9991,2 54201  53.2189 171.8085 0001901 118.0542 242.0643 15.08852516 22639,6917.842,95.437,541.022,538.392,0.0
54201.0,STARLINK-5199,PAYLOAD,2023-03-24 04:48:52,15.08822802,0.0001382,53.2192,168.8357,107.5068,252.6075,-1.0675e-05,-4.58e-06,0.0,0 STARLINK-5199,1 54201U 22141AW  23083.20060352 -.00000458  00000-0 -10675-4 0  9998,2 54201  53.2192 168.8357 0001382 107.5068 252.6075 15.08822802 22967,6917.933,95.439,540.754,538.842,0.0
54201.0,STARLINK-5199,PAYLOAD,2023-03-24 12:45:47,15.08822331,0.0001516,53.2184,167.3495,103.6474,256.4687,-8.1487e-05,-1.584e-05,0.0,0 STARLINK-5199,1 54201U 22141AW  23083.53180218 -.00001584  00000-0 -81487-4 0  9998,2 54201  53.2184 167.3495 0001516 103.6474 256.4687 15.08822331 22780,6917.934,95.439,540.848,538.751,0.0
54201.0,STARLINK-5199,PAYLOAD,2023-03-24 22:18:06,15.0882497,0.0001465,53.2184,165.5668,92.8973,267.2187,-6.0372e-05,-1.248e-05,0.0,0 STARLINK-5199,1 54201U 22141AW  23083.92924551 -.00001248  00000-0 -60372-4 0  9994,2 54201  53.2184 165.5668 0001465  92.8973 267.2187 15.08824970 22841,6917.926,95.439,540.805,538.778,0.0
54201.0,STARLINK-5199,PAYLOAD,2023-03-25 04:39:39,15.08827784,0.000155,53.2184,164.3772,102.9397,257.1769,-9.5948e-05,-1.814e-05,0.0,0 STARLINK-5199,1 54201U 22141AW  23084.19420713 -.00001814  00000-0 -95948-4 0  9991,2 54201  53.2184 164.3772 0001550 102.9397 257.1769 15.08827784 23113,6917.918,95.438,540.855,538.71,0.0
54201.0,STARLINK-5199,PAYLOAD,2023-03-25 22:08:53,15.08843669,0.0001471,53.2189,161.106,84.5295,275.5865,0.00020378,2.957e-05,0.0,0 STARLINK-5199,1 54201U 22141AW  23084.92284380  .00002957  00000-0  20378-3 0  9991,2 54201  53.2189 161.1060 0001471  84.5295 275.5865 15.08843669 22993,6917.869,95.437,540.752,538.717,0.0
54201.0,STARLINK-5199,PAYLOAD,2023-03-26 04:30:26,15.08843917,0.0001434,53.2184,159.9168,95.6256,264.49,0.00049352,7.576e-05,0.0,0 STARLINK-5199,1 54201U 22141AW  23085.18780887  .00007576  00000-0  49352-3 0  9998,2 54201  53.2184 159.9168 0001434  95.6256 264.4900 15.08843917 23265,6917.868,95.437,540.725,538.741,0.0
54201.0,STARLINK-5199,PAYLOAD,2023-03-26 12:27:21,15.08874362,0.0001314,53.2179,158.4299,90.0756,270.0387,0.00098799,0.00015486,0.0,0 STARLINK-5199,1 54201U 22141AW  23085.51899754  .00015486  00000-0  98799-3 0  9997,2 54201  53.2179 158.4299 0001314  90.0756 270.0387 15.08874362 23315,6917.775,95.435,540.549,538.731,0.0
54201.0,STARLINK-5199,PAYLOAD,2023-03-26 21:59:39,15.08864938,0.0001582,53.2166,156.6462,70.2244,289.8919,0.00021888,3.199e-05,0.0,0 STARLINK-5199,1 54201U 22141AW  23085.91643423  .00003199  00000-0  21888-3 0  9994,2 54201  53.2166 156.6462 0001582  70.2244 289.8919 15.08864938 23140,6917.804,95.436,540.764,538.575,0.0
